<?xml version="1.0" encoding="UTF-8"?>
<kml xmlns="http://www.opengis.net/kml/2.2"><Document>
<name>Muddy Run corridor - AAR 161.0</name>
    <Placemark>
      <name>Comm Wagon (TX)</name>
      <description><![CDATA[Mobile repeat TX, AAR 161.0]]></description>
      <Style><IconStyle><color>ffff0000</color><scale>1.0</scale>
        <Icon><href>http://maps.google.com/mapfiles/kml/paddle/wht-blank.png</href></Icon>
      </IconStyle></Style>
      <Point><coordinates>-76.2963533,39.8059656,0</coordinates></Point>
    </Placemark>

<Folder><name>NORTH</name>
<Placemark><name>NORTH corridor</name>
          <Style><LineStyle><color>ffcccccc</color><width>2</width></LineStyle></Style>
          <LineString><coordinates>-76.2963533,39.8059656,0 -76.3055000,39.8109000,0 -76.3144000,39.8164000,0 -76.3241000,39.8212000,0 -76.3410000,39.8322000,0 -76.3477000,39.8396000,0 -76.3515000,39.8476000,0 -76.3578000,39.8552000,0</coordinates></LineString></Placemark>
    <Placemark>
      <name>N1 SOLID</name>
      <description><![CDATA[AAR 161.0 | NORTH WP1<br/>path 0.95 km<br/>dBm terrain: -40.3<br/>dBm summer:  -46.2 (SOLID)<br/>dBm leaf-off:-43.0 (SOLID)<br/>mode: Double Horizon Diffraction Dominant]]></description>
      <Style><IconStyle><color>ff00c800</color><scale>1.0</scale>
        <Icon><href>http://maps.google.com/mapfiles/kml/paddle/wht-blank.png</href></Icon>
      </IconStyle></Style>
      <Point><coordinates>-76.3055000,39.8109000,0</coordinates></Point>
    </Placemark>

    <Placemark>
      <name>N2 SOLID</name>
      <description><![CDATA[AAR 161.0 | NORTH WP2<br/>path 1.93 km<br/>dBm terrain: -71.0<br/>dBm summer:  -76.8 (SOLID)<br/>dBm leaf-off:-73.6 (SOLID)<br/>mode: Double Horizon Diffraction Dominant]]></description>
      <Style><IconStyle><color>ff00c800</color><scale>1.0</scale>
        <Icon><href>http://maps.google.com/mapfiles/kml/paddle/wht-blank.png</href></Icon>
      </IconStyle></Style>
      <Point><coordinates>-76.3144000,39.8164000,0</coordinates></Point>
    </Placemark>

    <Placemark>
      <name>N3 SOLID</name>
      <description><![CDATA[AAR 161.0 | NORTH WP3<br/>path 2.91 km<br/>dBm terrain: -55.5<br/>dBm summer:  -61.3 (SOLID)<br/>dBm leaf-off:-58.1 (SOLID)<br/>mode: Double Horizon Diffraction Dominant]]></description>
      <Style><IconStyle><color>ff00c800</color><scale>1.0</scale>
        <Icon><href>http://maps.google.com/mapfiles/kml/paddle/wht-blank.png</href></Icon>
      </IconStyle></Style>
      <Point><coordinates>-76.3241000,39.8212000,0</coordinates></Point>
    </Placemark>

    <Placemark>
      <name>N5 SOLID</name>
      <description><![CDATA[AAR 161.0 | NORTH WP5<br/>path 4.8 km<br/>dBm terrain: -72.7<br/>dBm summer:  -78.5 (SOLID)<br/>dBm leaf-off:-75.4 (SOLID)<br/>mode: Double Horizon Diffraction Dominant]]></description>
      <Style><IconStyle><color>ff00c800</color><scale>1.0</scale>
        <Icon><href>http://maps.google.com/mapfiles/kml/paddle/wht-blank.png</href></Icon>
      </IconStyle></Style>
      <Point><coordinates>-76.3410000,39.8322000,0</coordinates></Point>
    </Placemark>

    <Placemark>
      <name>N6 SOLID</name>
      <description><![CDATA[AAR 161.0 | NORTH WP6<br/>path 5.76 km<br/>dBm terrain: -87.7<br/>dBm summer:  -93.5 (SOLID)<br/>dBm leaf-off:-90.3 (SOLID)<br/>mode: Double Horizon Diffraction Dominant]]></description>
      <Style><IconStyle><color>ff00c800</color><scale>1.0</scale>
        <Icon><href>http://maps.google.com/mapfiles/kml/paddle/wht-blank.png</href></Icon>
      </IconStyle></Style>
      <Point><coordinates>-76.3477000,39.8396000,0</coordinates></Point>
    </Placemark>

    <Placemark>
      <name>N7 SOLID</name>
      <description><![CDATA[AAR 161.0 | NORTH WP7<br/>path 6.61 km<br/>dBm terrain: -91.9<br/>dBm summer:  -97.8 (SOLID)<br/>dBm leaf-off:-94.6 (SOLID)<br/>mode: Double Horizon Diffraction Dominant]]></description>
      <Style><IconStyle><color>ff00c800</color><scale>1.0</scale>
        <Icon><href>http://maps.google.com/mapfiles/kml/paddle/wht-blank.png</href></Icon>
      </IconStyle></Style>
      <Point><coordinates>-76.3515000,39.8476000,0</coordinates></Point>
    </Placemark>

    <Placemark>
      <name>N8 USABLE</name>
      <description><![CDATA[AAR 161.0 | NORTH WP8<br/>path 7.58 km<br/>dBm terrain: -98.0<br/>dBm summer:  -103.8 (USABLE)<br/>dBm leaf-off:-100.7 (USABLE)<br/>mode: Double Horizon Diffraction Dominant]]></description>
      <Style><IconStyle><color>ff00d2ff</color><scale>1.0</scale>
        <Icon><href>http://maps.google.com/mapfiles/kml/paddle/wht-blank.png</href></Icon>
      </IconStyle></Style>
      <Point><coordinates>-76.3578000,39.8552000,0</coordinates></Point>
    </Placemark>

</Folder>
<Folder><name>SOUTH</name>
<Placemark><name>SOUTH corridor</name>
          <Style><LineStyle><color>ffcccccc</color><width>2</width></LineStyle></Style>
          <LineString><coordinates>-76.2963533,39.8059656,0 -76.2899000,39.7985000,0 -76.2832000,39.7911000,0 -76.2764000,39.7838000,0 -76.2697000,39.7764000,0 -76.2630000,39.7691000,0 -76.2563000,39.7617000,0 -76.2496000,39.7544000,0 -76.2429000,39.7470000,0</coordinates></LineString></Placemark>
    <Placemark>
      <name>S1 SOLID</name>
      <description><![CDATA[AAR 161.0 | SOUTH WP1<br/>path 1.0 km<br/>dBm terrain: -54.3<br/>dBm summer:  -60.1 (SOLID)<br/>dBm leaf-off:-56.9 (SOLID)<br/>mode: Single Horizon Diffraction Dominant]]></description>
      <Style><IconStyle><color>ff00c800</color><scale>1.0</scale>
        <Icon><href>http://maps.google.com/mapfiles/kml/paddle/wht-blank.png</href></Icon>
      </IconStyle></Style>
      <Point><coordinates>-76.2899000,39.7985000,0</coordinates></Point>
    </Placemark>

    <Placemark>
      <name>S2 SOLID</name>
      <description><![CDATA[AAR 161.0 | SOUTH WP2<br/>path 2.0 km<br/>dBm terrain: -62.2<br/>dBm summer:  -68.0 (SOLID)<br/>dBm leaf-off:-64.9 (SOLID)<br/>mode: Single Horizon Diffraction Dominant]]></description>
      <Style><IconStyle><color>ff00c800</color><scale>1.0</scale>
        <Icon><href>http://maps.google.com/mapfiles/kml/paddle/wht-blank.png</href></Icon>
      </IconStyle></Style>
      <Point><coordinates>-76.2832000,39.7911000,0</coordinates></Point>
    </Placemark>

    <Placemark>
      <name>S3 SOLID</name>
      <description><![CDATA[AAR 161.0 | SOUTH WP3<br/>path 3.0 km<br/>dBm terrain: -69.2<br/>dBm summer:  -75.1 (SOLID)<br/>dBm leaf-off:-71.9 (SOLID)<br/>mode: Single Horizon Diffraction Dominant]]></description>
      <Style><IconStyle><color>ff00c800</color><scale>1.0</scale>
        <Icon><href>http://maps.google.com/mapfiles/kml/paddle/wht-blank.png</href></Icon>
      </IconStyle></Style>
      <Point><coordinates>-76.2764000,39.7838000,0</coordinates></Point>
    </Placemark>

    <Placemark>
      <name>S4 SOLID</name>
      <description><![CDATA[AAR 161.0 | SOUTH WP4<br/>path 3.99 km<br/>dBm terrain: -75.0<br/>dBm summer:  -80.9 (SOLID)<br/>dBm leaf-off:-77.7 (SOLID)<br/>mode: Single Horizon Diffraction Dominant]]></description>
      <Style><IconStyle><color>ff00c800</color><scale>1.0</scale>
        <Icon><href>http://maps.google.com/mapfiles/kml/paddle/wht-blank.png</href></Icon>
      </IconStyle></Style>
      <Point><coordinates>-76.2697000,39.7764000,0</coordinates></Point>
    </Placemark>

    <Placemark>
      <name>S5 SOLID</name>
      <description><![CDATA[AAR 161.0 | SOUTH WP5<br/>path 4.99 km<br/>dBm terrain: -79.4<br/>dBm summer:  -85.3 (SOLID)<br/>dBm leaf-off:-82.1 (SOLID)<br/>mode: Single Horizon Diffraction Dominant]]></description>
      <Style><IconStyle><color>ff00c800</color><scale>1.0</scale>
        <Icon><href>http://maps.google.com/mapfiles/kml/paddle/wht-blank.png</href></Icon>
      </IconStyle></Style>
      <Point><coordinates>-76.2630000,39.7691000,0</coordinates></Point>
    </Placemark>

    <Placemark>
      <name>S6 SOLID</name>
      <description><![CDATA[AAR 161.0 | SOUTH WP6<br/>path 5.99 km<br/>dBm terrain: -81.2<br/>dBm summer:  -87.1 (SOLID)<br/>dBm leaf-off:-83.9 (SOLID)<br/>mode: Single Horizon Diffraction Dominant]]></description>
      <Style><IconStyle><color>ff00c800</color><scale>1.0</scale>
        <Icon><href>http://maps.google.com/mapfiles/kml/paddle/wht-blank.png</href></Icon>
      </IconStyle></Style>
      <Point><coordinates>-76.2563000,39.7617000,0</coordinates></Point>
    </Placemark>

    <Placemark>
      <name>S7 SOLID</name>
      <description><![CDATA[AAR 161.0 | SOUTH WP7<br/>path 6.99 km<br/>dBm terrain: -82.7<br/>dBm summer:  -88.6 (SOLID)<br/>dBm leaf-off:-85.4 (SOLID)<br/>mode: Single Horizon Diffraction Dominant]]></description>
      <Style><IconStyle><color>ff00c800</color><scale>1.0</scale>
        <Icon><href>http://maps.google.com/mapfiles/kml/paddle/wht-blank.png</href></Icon>
      </IconStyle></Style>
      <Point><coordinates>-76.2496000,39.7544000,0</coordinates></Point>
    </Placemark>

    <Placemark>
      <name>S8 SOLID</name>
      <description><![CDATA[AAR 161.0 | SOUTH WP8<br/>path 7.99 km<br/>dBm terrain: -83.8<br/>dBm summer:  -89.7 (SOLID)<br/>dBm leaf-off:-86.5 (SOLID)<br/>mode: Single Horizon Diffraction Dominant]]></description>
      <Style><IconStyle><color>ff00c800</color><scale>1.0</scale>
        <Icon><href>http://maps.google.com/mapfiles/kml/paddle/wht-blank.png</href></Icon>
      </IconStyle></Style>
      <Point><coordinates>-76.2429000,39.7470000,0</coordinates></Point>
    </Placemark>

</Folder>
</Document></kml>